start=new Date('2022-10-07T00:00:00.000Z').valueOf();
sats=[{"EPHEMERIS_TYPE":"0","GP_ID":"214359010","EPOCH":"2022-10-06T19:28:49.464768","SITE":"AFETR","COUNTRY_CODE":"US","CLASSIFICATION_TYPE":"U","FILE":"3594620","PERIOD":"95.592","TLE_LINE1":"1 48661U 21044Z   22279.81168362  .00000952  00000-0  82838-4 0  9992","BSTAR":"0.00008283800000","OBJECT_TYPE":"PAYLOAD","SEMIMAJOR_AXIS":"6925.364","PERIAPSIS":"545.828","ECCENTRICITY":"0.00020220","MEAN_ANOMALY":"316.7500","OBJECT_NAME":"STARLINK-2708","CENTER_NAME":"EARTH","ELEMENT_SET_NO":"999","APOAPSIS":"548.629","DECAY_DATE":null,"ARG_OF_PERICENTER":"43.3648","LAUNCH_DATE":"2021-05-26","OBJECT_ID":"2021-044Z","TLE_LINE2":"2 48661  53.0546 322.5301 0002022  43.3648 316.7500 15.06395097 75469","NORAD_CAT_ID":"48661","INCLINATION":"53.0546","RA_OF_ASC_NODE":"322.5301","MEAN_MOTION_DDOT":"0.0000000000000","MEAN_ELEMENT_THEORY":"SGP4","TIME_SYSTEM":"UTC","RCS_SIZE":"LARGE","MEAN_MOTION":"15.06395097","REF_FRAME":"TEME","MEAN_MOTION_DOT":"0.00000952","REV_AT_EPOCH":"7546"},{"TIME_SYSTEM":"UTC","RCS_SIZE":"LARGE","MEAN_MOTION":"15.06400314","REV_AT_EPOCH":"7542","REF_FRAME":"TEME","MEAN_MOTION_DOT":"0.00000107","OBJECT_ID":"2021-044AA","INCLINATION":"53.0546","RA_OF_ASC_NODE":"323.7629","MEAN_MOTION_DDOT":"0.0000000000000","MEAN_ELEMENT_THEORY":"SGP4","TLE_LINE2":"2 48662  53.0546 323.7629 0001852  59.6841 300.4331 15.06400314 75428","NORAD_CAT_ID":"48662","DECAY_DATE":null,"ARG_OF_PERICENTER":"59.6841","LAUNCH_DATE":"2021-05-26","APOAPSIS":"548.495","ELEMENT_SET_NO":"999","CENTER_NAME":"EARTH","OBJECT_TYPE":"PAYLOAD","BSTAR":"0.00002612300000","SEMIMAJOR_AXIS":"6925.348","TLE_LINE1":"1 48662U 21044AA  22279.54260452  .00000107  00000-0  26123-4 0  9993","MEAN_ANOMALY":"300.4331","PERIAPSIS":"545.930","ECCENTRICITY":"0.00018520","OBJECT_NAME":"STARLINK-2726","PERIOD":"95.592","CLASSIFICATION_TYPE":"U","FILE":"3594620","GP_ID":"214358738","EPHEMERIS_TYPE":"0","SITE":"AFETR","COUNTRY_CODE":"US","EPOCH":"2022-10-06T13:01:21.030528"},{"REF_FRAME":"TEME","MEAN_MOTION_DOT":"-0.00000282","REV_AT_EPOCH":"7627","TIME_SYSTEM":"UTC","RCS_SIZE":"LARGE","MEAN_MOTION":"15.06396386","NORAD_CAT_ID":"48663","TLE_LINE2":"2 48663  53.0553 323.4731 0001748  58.2413 301.8746 15.06396386 76274","INCLINATION":"53.0553","RA_OF_ASC_NODE":"323.4731","MEAN_ELEMENT_THEORY":"SGP4","MEAN_MOTION_DDOT":"0.0000000000000","OBJECT_ID":"2021-044AB","LAUNCH_DATE":"2021-05-26","DECAY_DATE":null,"ARG_OF_PERICENTER":"58.2413","CENTER_NAME":"EARTH","ELEMENT_SET_NO":"999","APOAPSIS":"548.435","PERIAPSIS":"546.014","MEAN_ANOMALY":"301.8746","ECCENTRICITY":"0.00017480","OBJECT_NAME":"STARLINK-2667","TLE_LINE1":"1 48663U 21044AB  22279.60527023 -.00000282  00000-0 -43391-7 0  9996","BSTAR":"-0.00000004339100","OBJECT_TYPE":"PAYLOAD","SEMIMAJOR_AXIS":"6925.360","PERIOD":"95.592","FILE":"3593919","CLASSIFICATION_TYPE":"U","EPOCH":"2022-10-06T14:31:35.347872","SITE":"AFETR","COUNTRY_CODE":"US","EPHEMERIS_TYPE":"0","GP_ID":"214320492"},{"ARG_OF_PERICENTER":"42.0343","DECAY_DATE":null,"LAUNCH_DATE":"2021-05-26","ELEMENT_SET_NO":"999","CENTER_NAME":"EARTH","APOAPSIS":"548.543","MEAN_MOTION":"15.06403352","RCS_SIZE":"LARGE","TIME_SYSTEM":"UTC","MEAN_MOTION_DOT":"0.00003437","REF_FRAME":"TEME","REV_AT_EPOCH":"7543","OBJECT_ID":"2021-044AC","NORAD_CAT_ID":"48664","TLE_LINE2":"2 48664  53.0550 323.4921 0001934  42.0343 318.0794 15.06403352 75435","MEAN_MOTION_DDOT":"0.0000000000000","MEAN_ELEMENT_THEORY":"SGP4","INCLINATION":"53.0550","RA_OF_ASC_NODE":"323.4921","CLASSIFICATION_TYPE":"U","FILE":"3594620","EPHEMERIS_TYPE":"0","GP_ID":"214358259","EPOCH":"2022-10-06T14:26:16.593216","COUNTRY_CODE":"US","SITE":"AFETR","TLE_LINE1":"1 48664U 21044AC  22279.60158094  .00003437  00000-0  24950-3 0  9994","SEMIMAJOR_AXIS":"6925.338","OBJECT_TYPE":"PAYLOAD","BSTAR":"0.00024950000000","OBJECT_NAME":"STARLINK-2709","PERIAPSIS":"545.864","MEAN_ANOMALY":"318.0794","ECCENTRICITY":"0.00019340","PERIOD":"95.592"},{"APOAPSIS":"548.411","CENTER_NAME":"EARTH","ELEMENT_SET_NO":"999","LAUNCH_DATE":"2021-05-26","ARG_OF_PERICENTER":"67.5848","DECAY_DATE":null,"MEAN_MOTION_DDOT":"0.0000000000000","MEAN_ELEMENT_THEORY":"SGP4","RA_OF_ASC_NODE":"323.4103","INCLINATION":"53.0564","NORAD_CAT_ID":"48665","TLE_LINE2":"2 48665  53.0564 323.4103 0001649  67.5848 292.5315 15.06381761 76332","OBJECT_ID":"2021-044AD","REV_AT_EPOCH":"7633","MEAN_MOTION_DOT":"0.00004383","REF_FRAME":"TEME","MEAN_MOTION":"15.06381761","RCS_SIZE":"LARGE","TIME_SYSTEM":"UTC","COUNTRY_CODE":"US","SITE":"AFETR","EPOCH":"2022-10-06T14:46:08.856192","GP_ID":"214320538","EPHEMERIS_TYPE":"0","FILE":"3593922","CLASSIFICATION_TYPE":"U","PERIOD":"95.593","OBJECT_NAME":"STARLINK-2653","ECCENTRICITY":"0.00016490","PERIAPSIS":"546.127","MEAN_ANOMALY":"292.5315","SEMIMAJOR_AXIS":"6925.404","BSTAR":"0.00031310000000","OBJECT_TYPE":"PAYLOAD","TLE_LINE1":"1 48665U 21044AD  22279.61538028  .00004383  00000-0  31310-3 0  9994"},{"OBJECT_NAME":"STARLINK-2666","ECCENTRICITY":"0.00017310","PERIAPSIS":"546.038","MEAN_ANOMALY":"308.1932","TLE_LINE1":"1 48666U 21044AE  22279.49475195 -.00000221  00000-0  40617-5 0  9996","SEMIMAJOR_AXIS":"6925.371","BSTAR":"0.00000406170000","OBJECT_TYPE":"PAYLOAD","PERIOD":"95.593","FILE":"3593749","CLASSIFICATION_TYPE":"U","EPOCH":"2022-10-06T11:52:26.568480","COUNTRY_CODE":"US","SITE":"AFETR","EPHEMERIS_TYPE":"0","GP_ID":"214311941","MEAN_MOTION_DOT":"-0.00000221","REF_FRAME":"TEME","REV_AT_EPOCH":"7540","MEAN_MOTION":"15.06392543","RCS_SIZE":"LARGE","TIME_SYSTEM":"UTC","TLE_LINE2":"2 48666  53.0552 324.4494 0001731  51.9213 308.1932 15.06392543 75405","NORAD_CAT_ID":"48666","MEAN_MOTION_DDOT":"0.0000000000000","MEAN_ELEMENT_THEORY":"SGP4","INCLINATION":"53.0552","RA_OF_ASC_NODE":"324.4494","OBJECT_ID":"2021-044AE","LAUNCH_DATE":"2021-05-26","ARG_OF_PERICENTER":"51.9213","DECAY_DATE":null,"ELEMENT_SET_NO":"999","CENTER_NAME":"EARTH","APOAPSIS":"548.435"},{"CENTER_NAME":"EARTH","ELEMENT_SET_NO":"999","APOAPSIS":"548.208","LAUNCH_DATE":"2021-05-26","ARG_OF_PERICENTER":"60.8481","DECAY_DATE":null,"NORAD_CAT_ID":"48667","TLE_LINE2":"2 48667  53.0559 324.4032 0001480  60.8481 299.2656 15.06409801 76240","MEAN_MOTION_DDOT":"0.0000000000000","MEAN_ELEMENT_THEORY":"SGP4","INCLINATION":"53.0559","RA_OF_ASC_NODE":"324.4032","OBJECT_ID":"2021-044AF","MEAN_MOTION_DOT":"-0.00001261","REF_FRAME":"TEME","REV_AT_EPOCH":"7624","MEAN_MOTION":"15.06409801","TIME_SYSTEM":"UTC","RCS_SIZE":"LARGE","EPOCH":"2022-10-06T09:34:20.744544","COUNTRY_CODE":"US","SITE":"AFETR","EPHEMERIS_TYPE":"0","GP_ID":"214320961","FILE":"3593953","CLASSIFICATION_TYPE":"U","PERIOD":"95.592","OBJECT_NAME":"STARLINK-2735","PERIAPSIS":"546.159","ECCENTRICITY":"0.00014800","MEAN_ANOMALY":"299.2656","TLE_LINE1":"1 48667U 21044AF  22279.39885121 -.00001261  00000-0 -65764-4 0  9995","SEMIMAJOR_AXIS":"6925.319","OBJECT_TYPE":"PAYLOAD","BSTAR":"-0.00006576400000"},{"EPHEMERIS_TYPE":"0","GP_ID":"214357760","EPOCH":"2022-10-06T20:37:49.343232","COUNTRY_CODE":"US","SITE":"AFETR","CLASSIFICATION_TYPE":"U","FILE":"3594620","PERIOD":"95.592","TLE_LINE1":"1 48668U 21044AG  22279.85959888  .00000641  00000-0  61910-4 0  9997","SEMIMAJOR_AXIS":"6925.355","OBJECT_TYPE":"PAYLOAD","BSTAR":"0.00006191000000","OBJECT_NAME":"STARLINK-2738","MEAN_ANOMALY":"303.6536","PERIAPSIS":"546.078","ECCENTRICITY":"0.00016480","ELEMENT_SET_NO":"999","CENTER_NAME":"EARTH","APOAPSIS":"548.361","ARG_OF_PERICENTER":"56.4610","DECAY_DATE":null,"LAUNCH_DATE":"2021-05-26","OBJECT_ID":"2021-044AG","NORAD_CAT_ID":"48668","TLE_LINE2":"2 48668  53.0557 322.3244 0001648  56.4610 303.6536 15.06398023 75476","MEAN_MOTION_DDOT":"0.0000000000000","MEAN_ELEMENT_THEORY":"SGP4","INCLINATION":"53.0557","RA_OF_ASC_NODE":"322.3244","MEAN_MOTION":"15.06398023","TIME_SYSTEM":"UTC","RCS_SIZE":"LARGE","MEAN_MOTION_DOT":"0.00000641","REF_FRAME":"TEME","REV_AT_EPOCH":"7547"},{"EPHEMERIS_TYPE":"0","GP_ID":"214359011","EPOCH":"2022-10-06T20:32:30.924672","COUNTRY_CODE":"US","SITE":"AFETR","CLASSIFICATION_TYPE":"U","FILE":"3594620","PERIOD":"95.592","TLE_LINE1":"1 48669U 21044AH  22279.85591348  .00000154  00000-0  29221-4 0  9999","SEMIMAJOR_AXIS":"6925.358","OBJECT_TYPE":"PAYLOAD","BSTAR":"0.00002922100000","OBJECT_NAME":"STARLINK-2707","PERIAPSIS":"546.125","MEAN_ANOMALY":"291.9708","ECCENTRICITY":"0.00015860","CENTER_NAME":"EARTH","ELEMENT_SET_NO":"999","APOAPSIS":"548.322","ARG_OF_PERICENTER":"68.1450","DECAY_DATE":null,"LAUNCH_DATE":"2021-05-26","OBJECT_ID":"2021-044AH","NORAD_CAT_ID":"48669","TLE_LINE2":"2 48669  53.0555 322.3294 0001586  68.1450 291.9708 15.06396834 75460","MEAN_MOTION_DDOT":"0.0000000000000","MEAN_ELEMENT_THEORY":"SGP4","INCLINATION":"53.0555","RA_OF_ASC_NODE":"322.3294","MEAN_MOTION":"15.06396834","RCS_SIZE":"LARGE","TIME_SYSTEM":"UTC","MEAN_MOTION_DOT":"0.00000154","REF_FRAME":"TEME","REV_AT_EPOCH":"7546"},{"LAUNCH_DATE":"2021-05-26","DECAY_DATE":null,"ARG_OF_PERICENTER":"60.0355","APOAPSIS":"548.263","CENTER_NAME":"EARTH","ELEMENT_SET_NO":"999","REV_AT_EPOCH":"7546","REF_FRAME":"TEME","MEAN_MOTION_DOT":"0.00002986","RCS_SIZE":"LARGE","TIME_SYSTEM":"UTC","MEAN_MOTION":"15.06398348","INCLINATION":"53.0561","RA_OF_ASC_NODE":"322.3459","MEAN_MOTION_DDOT":"0.0000000000000","MEAN_ELEMENT_THEORY":"SGP4","NORAD_CAT_ID":"48670","TLE_LINE2":"2 48670  53.0561 322.3459 0001508  60.0355 300.0783 15.06398348 75468","OBJECT_ID":"2021-044AJ","FILE":"3594620","CLASSIFICATION_TYPE":"U","SITE":"AFETR","COUNTRY_CODE":"US","EPOCH":"2022-10-06T20:27:12.286656","GP_ID":"214358739","EPHEMERIS_TYPE":"0","PERIAPSIS":"546.174","MEAN_ANOMALY":"300.0783","ECCENTRICITY":"0.00015080","OBJECT_NAME":"STARLINK-2763","OBJECT_TYPE":"PAYLOAD","BSTAR":"0.00021929000000","SEMIMAJOR_AXIS":"6925.354","TLE_LINE1":"1 48670U 21044AJ  22279.85222554  .00002986  00000-0  21929-3 0  9992","PERIOD":"95.592"}];
